$$SOE
2459580.500000000, A.D. 2022-Jan-01 00:00:00.0000, -2.345602100288264E+08, -1.563724678348078E+08, 1.143644331893213E+08,
2459587.500000000, A.D. 2022-Jan-08 00:00:00.0000, -2.265239693864214E+08, -1.655214013616937E+08, 1.156755675483676E+08,
2459594.500000000, A.D. 2022-Jan-15 00:00:00.0000, -2.180943336417312E+08, -1.743828224063533E+08, 1.167857821820996E+08,
2459601.500000000, A.D. 2022-Jan-22 00:00:00.0000, -2.092829737794577E+08, -1.829389678787676E+08, 1.176915596961250E+08,
2459608.500000000, A.D. 2022-Jan-29 00:00:00.0000, -2.001023147767400E+08, -1.911722401552740E+08, 1.183896299257650E+08,
2459615.500000000, A.D. 2022-Feb-05 00:00:00.0000, -1.905655508851994E+08, -1.990652340904670E+08, 1.188769828073244E+08,
2459622.500000000, A.D. 2022-Feb-12 00:00:00.0000, -1.806866583536693E+08, -2.066007673524927E+08, 1.191508816809946E+08,
2459629.500000000, A.D. 2022-Feb-19 00:00:00.0000, -1.704804067247737E+08, -2.137619118318300E+08, 1.192088773383320E+08,
2459636.500000000, A.D. 2022-Feb-26 00:00:00.0000, -1.599623698027780E+08, -2.205320269570412E+08, 1.190488228627886E+08,
2459643.500000000, A.D. 2022-Mar-05 00:00:00.0000, -1.491489358966069E+08, -2.268947956384571E+08, 1.186688891757171E+08,
2459650.500000000, A.D. 2022-Mar-12 00:00:00.0000, -1.380573168574338E+08, -2.328342630031173E+08, 1.180675812327673E+08,
2459657.500000000, A.D. 2022-Mar-19 00:00:00.0000, -1.267055555616829E+08, -2.383348779788336E+08, 1.172437548312437E+08,
2459664.500000000, A.D. 2022-Mar-26 00:00:00.0000, -1.151125315202629E+08, -2.433815378000140E+08, 1.161966339801687E+08,
2459671.500000000, A.D. 2022-Apr-02 00:00:00.0000, -1.032979642287532E+08, -2.479596355337187E+08, 1.149258287597550E+08,
2459678.500000000, A.D. 2022-Apr-09 00:00:00.0000, -9.128241364537533E+07, -2.520551106372279E+08, 1.134313535624947E+08,
2459685.500000000, A.D. 2022-Apr-16 00:00:00.0000, -7.908727707176591E+07, -2.556545018813182E+08, 1.117136456324497E+08,
2459692.500000000, A.D. 2022-Apr-23 00:00:00.0000, -6.673478330999722E+07, -2.587450015139595E+08, 1.097735839868483E+08,
2459699.500000000, A.D. 2022-Apr-30 00:00:00.0000, -5.424798554735918E+07, -2.613145128368374E+08, 1.076125085763615E+08,
2459706.500000000, A.D. 2022-May-07 00:00:00.0000, -4.165074947502184E+07, -2.633517130601316E+08, 1.052322391033271E+08,
2459713.500000000, A.D. 2022-May-14 00:00:00.0000, -2.896773481834598E+07, -2.648461182437062E+08, 1.026350934674651E+08,
2459720.500000000, A.D. 2022-May-21 00:00:00.0000, -1.622437187630424E+07, -2.657881493547900E+08, 9.982390591148636E+07,
2459727.500000000, A.D. 2022-May-28 00:00:00.0000, -3.446833113222876E+06, -2.661692001284695E+08, 9.680204462842818E+07,
2459734.500000000, A.D. 2022-Jun-04 00:00:00.0000, 9.338000907141335E+06, -2.659817067086376E+08, 9.357342855089682E+07,
2459741.500000000, A.D. 2022-Jun-11 00:00:00.0000, 2.210258181224260E+07, -2.652192186657721E+08, 9.014254305730842E+07,
2459748.500000000, A.D. 2022-Jun-18 00:00:00.0000, 3.481874037856966E+07, -2.638764709075710E+08, 8.651445432044202E+07,
2459755.500000000, A.D. 2022-Jun-25 00:00:00.0000, 4.745774056031468E+07, -2.619494559749471E+08, 8.269482200464198E+07,
2459762.500000000, A.D. 2022-Jul-02 00:00:00.0000, 5.999034105221730E+07, -2.594354961772844E+08, 7.868990999173240E+07,
2459769.500000000, A.D. 2022-Jul-09 00:00:00.0000, 7.238686504715812E+07, -2.563333147033174E+08, 7.450659479588757E+07,
2459776.500000000, A.D. 2022-Jul-16 00:00:00.0000, 8.461727833470222E+07, -2.526431038603534E+08, 7.015237142652905E+07,
2459783.500000000, A.D. 2022-Jul-23 00:00:00.0000, 9.665127366493326E+07, -2.483665895208800E+08, 6.563535656198621E+07,
2459790.500000000, A.D. 2022-Jul-30 00:00:00.0000, 1.084583614963041E+08, -2.435070942126040E+08, 6.096428840657453E+07,
2459797.500000000, A.D. 2022-Aug-06 00:00:00.0000, 1.200079706610022E+08, -2.380695972288969E+08, 5.614852262383925E+07,
2459804.500000000, A.D. 2022-Aug-13 00:00:00.0000, 1.312695579391825E+08, -2.320607879924503E+08, 5.119802434132206E+07,
2459811.500000000, A.D. 2022-Aug-20 00:00:00.0000, 1.422127246486387E+08, -2.254891121359266E+08, 4.612335604962843E+07,
2459818.500000000, A.D. 2022-Aug-27 00:00:00.0000, 1.528073398447076E+08, -2.183648099726840E+08, 4.093566107694282E+07,
2459825.500000000, A.D. 2022-Sep-03 00:00:00.0000, 1.630236697496681E+08, -2.106999464167948E+08, 3.564664238618428E+07,
2459832.500000000, A.D. 2022-Sep-10 00:00:00.0000, 1.728325127142755E+08, -2.025084312978540E+08, 3.026853650826284E+07,
2459839.500000000, A.D. 2022-Sep-17 00:00:00.0000, 1.822053387921954E+08, -1.938060290834285E+08, 2.481408247900715E+07,
2459846.500000000, A.D. 2022-Sep-24 00:00:00.0000, 1.911144328796875E+08, -1.846103571330179E+08, 1.929648570106716E+07,
2459853.500000000, A.D. 2022-Oct-01 00:00:00.0000, 1.995330404078059E+08, -1.749408716669505E+08, 1.372937671175504E+07,
2459860.500000000, A.D. 2022-Oct-08 00:00:00.0000, 2.074355146143016E+08, -1.648188402199175E+08, 8.126764952603981E+06,
2459867.500000000, A.D. 2022-Oct-15 00:00:00.0000, 2.147974629592774E+08, -1.542672988352036E+08, 2.502987899927281E+06,
2459874.500000000, A.D. 2022-Oct-22 00:00:00.0000, 2.215958888855447E+08, -1.433109953094049E+08, -3.127344122195132E+06,
2459881.500000000, A.D. 2022-Oct-29 00:00:00.0000, 2.278093297243655E+08, -1.319763208907406E+08, -8.749407539988391E+06,
2459888.500000000, A.D. 2022-Nov-05 00:00:00.0000, 2.334179911121484E+08, -1.202912277146603E+08, -1.434822906806143E+07,
2459895.500000000, A.D. 2022-Nov-12 00:00:00.0000, 2.384038742154019E+08, -1.082851309719015E+08, -1.990875237729849E+07,
2459902.500000000, A.D. 2022-Nov-19 00:00:00.0000, 2.427508933333079E+08, -9.598879726627906E+07, -2.541590729954115E+07,
2459909.500000000, A.D. 2022-Nov-26 00:00:00.0000, 2.464449824948139E+08, -8.343422030270438E+07, -3.085468095057697E+07,
2459916.500000000, A.D. 2022-Dec-03 00:00:00.0000, 2.494741896783929E+08, -7.065448489607532E+07, -3.621019005356397E+07,
2459923.500000000, A.D. 2022-Dec-10 00:00:00.0000, 2.518287573096543E+08, -5.768362048647392E+07, -4.146775368624389E+07,
2459930.500000000, A.D. 2022-Dec-17 00:00:00.0000, 2.535011878561703E+08, -4.455644559759041E+07, -4.661296564805134E+07,
2459937.500000000, A.D. 2022-Dec-24 00:00:00.0000, 2.544862936377154E+08, -3.130840490172517E+07, -5.163176564290652E+07,
2459944.500000000, A.D. 2022-Dec-31 00:00:00.0000, 2.547812304486934E+08, -1.797540053143591E+07, -5.651050848500842E+07,
2459951.500000000, A.D. 2023-Jan-07 00:00:00.0000, 2.543855146182956E+08, -4.593618521185830E+06, -6.123603046395560E+07,
2459958.500000000, A.D. 2023-Jan-14 00:00:00.0000, 2.533010213546596E+08, 8.800648194505628E+06, -6.579571190512779E+07,
2459965.500000000, A.D. 2023-Jan-21 00:00:00.0000, 2.515319638204896E+08, 2.217117506848487E+07, -7.017753544932915E+07,
2459972.500000000, A.D. 2023-Jan-28 00:00:00.0000, 2.490848569423122E+08, 3.548197734044400E+07, -7.437013978828719E+07,
2459979.500000000, A.D. 2023-Feb-04 00:00:00.0000, 2.459684663363851E+08, 4.869747865971901E+07, -7.836286804341385E+07,
2459986.500000000, A.D. 2023-Feb-11 00:00:00.0000, 2.421937413987489E+08, 6.178267492730172E+07, -8.214581017562965E+07,
2459993.500000000, A.D. 2023-Feb-18 00:00:00.0000, 2.377737335752178E+08, 7.470329087998375E+07, -8.570983912832662E+07,
2460000.500000000, A.D. 2023-Feb-25 00:00:00.0000, 2.327235013733621E+08, 8.742592777915186E+07, -8.904664051212415E+07,
2460007.500000000, A.D. 2023-Mar-04 00:00:00.0000, 2.270600036946910E+08, 9.991820092396688E+07, -9.214873574341914E+07,
2460014.500000000, A.D. 2023-Mar-11 00:00:00.0000, 2.208019831083919E+08, 1.121488658779712E+08, -9.500949865306088E+07,
2460021.500000000, A.D. 2023-Mar-18 00:00:00.0000, 2.139698407747691E+08, 1.240879324630495E+08, -9.762316567682895E+07,
2460028.500000000, A.D. 2023-Mar-25 00:00:00.0000, 2.065855049191746E+08, 1.357067658115626E+08, -9.998483983820644E+07,
2460035.500000000, A.D. 2023-Apr-01 00:00:00.0000, 1.986722949851198E+08, 1.469781744390691E+08, -1.020904887991650E+08,
2460042.500000000, A.D. 2023-Apr-08 00:00:00.0000, 1.902547825172415E+08, 1.578764863509558E+08, -1.039369371529645E+08,
2460049.500000000, A.D. 2023-Apr-15 00:00:00.0000, 1.813586480378472E+08, 1.683776120996933E+08, -1.055218532280883E+08,
2460056.500000000, A.D. 2023-Apr-22 00:00:00.0000, 1.720105372671845E+08, 1.784590919660912E+08, -1.068437312869463E+08,
2460063.500000000, A.D. 2023-Apr-29 00:00:00.0000, 1.622379208500521E+08, 1.881001298911218E+08, -1.079018696798685E+08,
2460070.500000000, A.D. 2023-May-06 00:00:00.0000, 1.520689571115018E+08, 1.972816164690251E+08, -1.086963451520420E+08,
2460077.500000000, A.D. 2023-May-13 00:00:00.0000, 1.415323580101167E+08, 2.059861407744921E+08, -1.092279838087464E+08,
2460084.500000000, A.D. 2023-May-20 00:00:00.0000, 1.306572595221595E+08, 2.141979913023629E+08, -1.094983293255917E+08,
2460091.500000000, A.D. 2023-May-27 00:00:00.0000, 1.194730974960278E+08, 2.219031468378005E+08, -1.095096089392861E+08,
2460098.500000000, A.D. 2023-Jun-03 00:00:00.0000, 1.080094897272387E+08, 2.290892581853741E+08, -1.092646977191248E+08,
2460105.500000000, A.D. 2023-Jun-10 00:00:00.0000, 9.629612482102795E+07, 2.357456216790242E+08, -1.087670815943459E+08,
2460112.500000000, A.D. 2023-Jun-17 00:00:00.0000, 8.436265833226399E+07, 2.418631453620013E+08, -1.080208195916965E+08,
2460119.500000000, A.D. 2023-Jun-24 00:00:00.0000, 7.223861676970299E+07, 2.474343088383692E+08, -1.070305057155835E+08,
2460126.500000000, A.D. 2023-Jul-01 00:00:00.0000, 5.995330986488004E+07, 2.524531185527635E+08, -1.058012307999975E+08,
2460133.500000000, A.D. 2023-Jul-08 00:00:00.0000, 4.753574947610979E+07, 2.569150602095799E+08, -1.043385444432875E+08,
2460140.500000000, A.D. 2023-Jul-15 00:00:00.0000, 3.501457378742456E+07, 2.608170463365466E+08, -1.026484174170302E+08,
2460147.500000000, A.D. 2023-Jul-22 00:00:00.0000, 2.241798016499498E+07, 2.641573587620679E+08, -1.007372052089293E+08,
$$EOE